{
  "type": "FeatureCollection",
  "features": [
    {
      "type": "Feature",
      "properties": {
        "norad_id": 32376,
        "name": "COSMO-SKYMED 2",
        "group": "resource",
        "lat": 35.76524951319585,
        "lon": 169.88252059535955,
        "alt_km": 619.4535990820877,
        "timestamp": "2025-12-20T09:36:01.288237+00:00",
        "meta_object_name": "COSMO-SKYMED 2",
        "meta_object_id": "2007-059A",
        "meta_epoch": "2025-12-19T22:05:45.462048",
        "meta_mean_motion": 14.8215075,
        "meta_eccentricity": 0.00013535,
        "meta_inclination": 97.8804,
        "meta_ra_of_asc_node": 175.1363,
        "meta_arg_of_pericenter": 82.9394,
        "meta_mean_anomaly": 277.1973,
        "meta_ephemeris_type": 0,
        "meta_classification_type": "U",
        "meta_norad_cat_id": 32376,
        "meta_element_set_no": 999,
        "meta_rev_at_epoch": 97544,
        "meta_bstar": 5.1680259e-05,
        "meta_mean_motion_dot": 3.59e-06,
        "meta_mean_motion_ddot": 0,
        "tle_line1": "1 32376U 07059A   25353.92066507  .00000359  00000+0  51680-4 0  9995",
        "tle_line2": "2 32376  97.8804 175.1363 0001353  82.9394 277.1973 14.82150750975440"
      },
      "geometry": {
        "type": "Point",
        "coordinates": [
          169.88252059535955,
          35.76524951319585
        ]
      }
    },
    {
      "type": "Feature",
      "properties": {
        "norad_id": 32382,
        "name": "RADARSAT-2",
        "group": "resource",
        "lat": -11.074905085627735,
        "lon": 0.5720767510442114,
        "alt_km": 796.1165349371786,
        "timestamp": "2025-12-20T09:36:01.288247+00:00",
        "meta_object_name": "RADARSAT-2",
        "meta_object_id": "2007-061A",
        "meta_epoch": "2025-12-19T23:34:36.537312",
        "meta_mean_motion": 14.29983859,
        "meta_eccentricity": 0.00011092,
        "meta_inclination": 98.5791,
        "meta_ra_of_asc_node": 358.4673,
        "meta_arg_of_pericenter": 85.6069,
        "meta_mean_anomaly": 274.524,
        "meta_ephemeris_type": 0,
        "meta_classification_type": "U",
        "meta_norad_cat_id": 32382,
        "meta_element_set_no": 999,
        "meta_rev_at_epoch": 94034,
        "meta_bstar": 3.9467192e-05,
        "meta_mean_motion_dot": 5.8e-07,
        "meta_mean_motion_ddot": 0,
        "tle_line1": "1 32382U 07061A   25353.98236733  .00000058  00000+0  39467-4 0  9996",
        "tle_line2": "2 32382  98.5791 358.4673 0001109  85.6069 274.5240 14.29983859940342"
      },
      "geometry": {
        "type": "Point",
        "coordinates": [
          0.5720767510442114,
          -11.074905085627735
        ]
      }
    },
    {
      "type": "Feature",
      "properties": {
        "norad_id": 32783,
        "name": "CARTOSAT-2A",
        "group": "resource",
        "lat": 81.86491504524764,
        "lon": -29.347601264746032,
        "alt_km": 627.6100488353759,
        "timestamp": "2025-12-20T09:36:01.288258+00:00",
        "meta_object_name": "CARTOSAT-2A",
        "meta_object_id": "2008-021A",
        "meta_epoch": "2025-12-20T04:20:04.219296",
        "meta_mean_motion": 14.78950753,
        "meta_eccentricity": 0.0011251,
        "meta_inclination": 97.7924,
        "meta_ra_of_asc_node": 43.7721,
        "meta_arg_of_pericenter": 340.392,
        "meta_mean_anomaly": 19.6857,
        "meta_ephemeris_type": 0,
        "meta_classification_type": "U",
        "meta_norad_cat_id": 32783,
        "meta_element_set_no": 999,
        "meta_rev_at_epoch": 95234,
        "meta_bstar": 0.00013169,
        "meta_mean_motion_dot": 9.22e-06,
        "meta_mean_motion_ddot": 0,
        "tle_line1": "1 32783U 08021A   25354.18060439  .00000922  00000+0  13169-3 0  9999",
        "tle_line2": "2 32783  97.7924  43.7721 0011251 340.3920  19.6857 14.78950753952346"
      },
      "geometry": {
        "type": "Point",
        "coordinates": [
          -29.347601264746032,
          81.86491504524764
        ]
      }
    },
    {
      "type": "Feature",
      "properties": {
        "norad_id": 33320,
        "name": "HUANJING 1A (HJ-1A)",
        "group": "resource",
        "lat": 74.00118354357978,
        "lon": -45.58996294712871,
        "alt_km": 605.8590936069704,
        "timestamp": "2025-12-20T09:36:01.288268+00:00",
        "meta_object_name": "HUANJING 1A (HJ-1A)",
        "meta_object_id": "2008-041A",
        "meta_epoch": "2025-12-20T04:24:13.974912",
        "meta_mean_motion": 14.8341547,
        "meta_eccentricity": 0.0019642,
        "meta_inclination": 97.6535,
        "meta_ra_of_asc_node": 342.1712,
        "meta_arg_of_pericenter": 10.7747,
        "meta_mean_anomaly": 349.3884,
        "meta_ephemeris_type": 0,
        "meta_classification_type": "U",
        "meta_norad_cat_id": 33320,
        "meta_element_set_no": 999,
        "meta_rev_at_epoch": 93186,
        "meta_bstar": 0.00014007,
        "meta_mean_motion_dot": 1.102e-05,
        "meta_mean_motion_ddot": 0,
        "tle_line1": "1 33320U 08041A   25354.18349508  .00001102  00000+0  14007-3 0  9999",
        "tle_line2": "2 33320  97.6535 342.1712 0019642  10.7747 349.3884 14.83415470931869"
      },
      "geometry": {
        "type": "Point",
        "coordinates": [
          -45.58996294712871,
          74.00118354357978
        ]
      }
    },
    {
      "type": "Feature",
      "properties": {
        "norad_id": 33321,
        "name": "HUANJING 1B (HJ-1B)",
        "group": "resource",
        "lat": -76.92960174614312,
        "lon": 21.37500866000776,
        "alt_km": 645.0705998277281,
        "timestamp": "2025-12-20T09:36:01.288280+00:00",
        "meta_object_name": "HUANJING 1B (HJ-1B)",
        "meta_object_id": "2008-041B",
        "meta_epoch": "2025-12-20T05:05:57.708672",
        "meta_mean_motion": 14.82840621,
        "meta_eccentricity": 0.0037997,
        "meta_inclination": 97.6395,
        "meta_ra_of_asc_node": 345.8765,
        "meta_arg_of_pericenter": 52.1734,
        "meta_mean_anomaly": 308.291,
        "meta_ephemeris_type": 0,
        "meta_classification_type": "U",
        "meta_norad_cat_id": 33321,
        "meta_element_set_no": 999,
        "meta_rev_at_epoch": 93188,
        "meta_bstar": 0.0001633,
        "meta_mean_motion_dot": 1.287e-05,
        "meta_mean_motion_ddot": 0,
        "tle_line1": "1 33321U 08041B   25354.21247348  .00001287  00000+0  16330-3 0  9998",
        "tle_line2": "2 33321  97.6395 345.8765 0037997  52.1734 308.2910 14.82840621931886"
      },
      "geometry": {
        "type": "Point",
        "coordinates": [
          21.37500866000776,
          -76.92960174614312
        ]
      }
    },
    {
      "type": "Feature",
      "properties": {
        "norad_id": 33331,
        "name": "GEOEYE 1",
        "group": "resource",
        "lat": 50.00894334213542,
        "lon": -104.61083847725644,
        "alt_km": 674.5072369983691,
        "timestamp": "2025-12-20T09:36:01.288291+00:00",
        "meta_object_name": "GEOEYE 1",
        "meta_object_id": "2008-042A",
        "meta_epoch": "2025-12-20T04:05:36.757248",
        "meta_mean_motion": 14.64709473,
        "meta_eccentricity": 0.0002811,
        "meta_inclination": 98.1244,
        "meta_ra_of_asc_node": 65.3576,
        "meta_arg_of_pericenter": 252.467,
        "meta_mean_anomaly": 107.6225,
        "meta_ephemeris_type": 0,
        "meta_classification_type": "U",
        "meta_norad_cat_id": 33331,
        "meta_element_set_no": 999,
        "meta_rev_at_epoch": 92394,
        "meta_bstar": 8.2665e-05,
        "meta_mean_motion_dot": 3.93e-06,
        "meta_mean_motion_ddot": 0,
        "tle_line1": "1 33331U 08042A   25354.17056432  .00000393  00000+0  82665-4 0  9999",
        "tle_line2": "2 33331  98.1244  65.3576 0002811 252.4670 107.6225 14.64709473923948"
      },
      "geometry": {
        "type": "Point",
        "coordinates": [
          -104.61083847725644,
          50.00894334213542
        ]
      }
    },
    {
      "type": "Feature",
      "properties": {
        "norad_id": 33396,
        "name": "THEOS",
        "group": "resource",
        "lat": -16.858087218967885,
        "lon": -130.360019737923,
        "alt_km": 830.0100097396971,
        "timestamp": "2025-12-20T09:36:01.288301+00:00",
        "meta_object_name": "THEOS",
        "meta_object_id": "2008-049A",
        "meta_epoch": "2025-12-20T03:36:10.933920",
        "meta_mean_motion": 14.20098382,
        "meta_eccentricity": 0.0001164,
        "meta_inclination": 98.5863,
        "meta_ra_of_asc_node": 52.0216,
        "meta_arg_of_pericenter": 96.7502,
        "meta_mean_anomaly": 263.3807,
        "meta_ephemeris_type": 0,
        "meta_classification_type": "U",
        "meta_norad_cat_id": 33396,
        "meta_element_set_no": 999,
        "meta_rev_at_epoch": 89255,
        "meta_bstar": 0.00013323,
        "meta_mean_motion_dot": 2.41e-06,
        "meta_mean_motion_ddot": 0,
        "tle_line1": "1 33396U 08049A   25354.15012655  .00000241  00000+0  13323-3 0  9990",
        "tle_line2": "2 33396  98.5863  52.0216 0001164  96.7502 263.3807 14.20098382892557"
      },
      "geometry": {
        "type": "Point",
        "coordinates": [
          -130.360019737923,
          -16.858087218967885
        ]
      }
    }
  ]
}